OBJECT_NAME,OBJECT_ID,EPOCH,MEAN_MOTION,ECCENTRICITY,INCLINATION,RA_OF_ASC_NODE,ARG_OF_PERICENTER,MEAN_ANOMALY,EPHEMERIS_TYPE,CLASSIFICATION_TYPE,NORAD_CAT_ID,ELEMENT_SET_NO,REV_AT_EPOCH,BSTAR,MEAN_MOTION_DOT,MEAN_MOTION_DDOT
STARLINK-35571,2025-236D,2026-06-19T16:40:59.848032,15.30208612,.0001224,53.1622,349.9588,88.2128,271.9013,0,U,66089,999,3856,.87847E-3,.25756E-3,0
STARLINK-35570,2025-236E,2026-06-19T16:18:12.429792,15.30211492,.0001813,53.1614,349.8613,60.0865,300.0316,0,U,66090,999,3856,.5825E-3,.16938E-3,0
STARLINK-35532,2025-236F,2026-06-19T20:51:14.402016,15.30208429,.0001086,53.1605,348.9071,123.6917,236.4187,0,U,66091,999,3859,.57583E-3,.16738E-3,0
STARLINK-35527,2025-236G,2026-06-19T16:34:50.827584,15.34424751,.00013,53.1608,349.2278,72.5609,287.5536,0,U,66092,999,3857,.94129E-3,.31586E-3,0
STARLINK-35500,2025-236H,2026-06-19T16:45:33.009408,15.30205415,.0001241,53.1621,349.9732,109.3463,250.7672,0,U,66093,999,3856,.27411E-3,.7769E-4,0
STARLINK-35528,2025-236J,2026-06-19T16:36:26.430048,15.30204832,.0001101,53.1631,349.9381,79.1482,280.9642,0,U,66094,999,3856,.5856E-3,.17027E-3,0
STARLINK-35559,2025-236K,2026-06-19T16:31:52.713120,15.30212783,.0001276,53.1612,349.9142,70.7489,289.3649,0,U,66095,999,3856,.68759E-3,.20068E-3,0
STARLINK-34386,2025-236L,2026-06-19T16:22:46.176096,15.30212574,.0002889,53.1618,349.8723,35.5821,324.5372,0,U,66096,999,3856,.67599E-3,.19724E-3,0
STARLINK-35613,2025-236M,2026-06-19T16:34:55.049088,15.30209048,.0001488,53.1623,349.9296,99.8930,260.2239,0,U,66097,999,3856,.63322E-3,.18447E-3,0
STARLINK-34206,2025-236N,2026-06-19T16:43:56.216352,15.34404864,.0001206,53.1615,349.2644,96.9365,263.1775,0,U,66098,999,3856,.8946E-3,.29975E-3,0
STARLINK-34460,2025-236P,2026-06-19T20:55:47.896896,15.30213973,.0000976,53.1611,348.9273,94.4287,265.6825,0,U,66099,999,3859,.62878E-3,.18318E-3,0
STARLINK-35609,2025-236Q,2026-06-19T17:11:12.160608,15.34415129,.0000775,53.1588,349.3856,89.1504,270.9588,0,U,66100,999,3851,.86711E-3,.29048E-3,0
STARLINK-35595,2025-236R,2026-06-19T20:46:04.226016,15.34401550,.000147,53.1618,348.8867,86.2051,273.9120,0,U,66101,999,3853,.4797E-3,.15866E-3,0
STARLINK-35599,2025-236S,2026-06-19T16:40:54.563808,15.34400986,.0000949,53.1613,349.2511,80.4751,279.6358,0,U,66102,999,3851,.89426E-3,.29959E-3,0
STARLINK-35622,2025-236T,2026-06-19T17:17:14.974944,15.34403335,.0001086,53.1594,349.4050,59.2786,300.8324,0,U,66103,999,3857,.34395E-4,.786E-5,0
STARLINK-35452,2025-236U,2026-06-19T16:49:59.861856,15.34409900,.0001209,53.1613,349.2874,68.0073,292.1058,0,U,66104,999,3857,.86152E-3,.28853E-3,0
STARLINK-35561,2025-236V,2026-06-19T20:55:10.108128,15.34380186,.0001197,53.1615,348.9225,90.4538,269.6602,0,U,66105,999,3853,.71407E-3,.23811E-3,0
STARLINK-35584,2025-236W,2026-06-19T16:37:52.677120,15.34406476,.0001251,53.1612,349.2349,84.4192,275.6954,0,U,66106,999,3857,.62347E-3,.20751E-3,0
STARLINK-35593,2025-236X,2026-06-19T17:05:08.624832,15.34411549,.0000912,53.1601,349.3540,112.8434,247.2665,0,U,66107,999,3857,.73991E-3,.24714E-3,0
STARLINK-35590,2025-236Y,2026-06-19T20:52:07.499136,15.34407698,.0001007,53.1606,348.9097,47.2310,312.8777,0,U,66108,999,3853,.57201E-3,.19004E-3,0
STARLINK-35545,2025-236Z,2026-06-19T17:23:19.284000,15.34405894,.0000994,53.1604,349.4280,90.1260,269.9856,0,U,66109,999,3857,.77E-3,.25734E-3,0
STARLINK-35427,2025-236AA,2026-06-19T20:49:53.128992,15.30205345,.0001259,53.1599,349.6128,97.9228,262.1915,0,U,66110,999,3858,.60109E-3,.17488E-3,0
STARLINK-35574,2025-236AB,2026-06-19T17:38:44.782656,15.30219949,.0001528,53.1614,350.2034,78.5454,281.5718,0,U,66111,999,3850,.57674E-3,.16771E-3,0
STARLINK-35531,2025-236AC,2026-06-19T16:44:01.472064,15.30179089,.0001721,53.1624,349.9657,90.4341,269.6857,0,U,66112,999,3856,.18258E-3,.5048E-4,0
STARLINK-35491,2025-236AD,2026-06-19T17:35:42.285984,15.30204967,.0001177,53.1598,350.1926,98.7084,261.4050,0,U,66113,999,3856,.41932E-3,.12082E-3,0
STARLINK-35496,2025-237A,2026-06-19T14:48:16.709184,15.34388983,.00007593,53.1588,285.6461,81.1888,278.9201,0,U,66114,999,3822,-.3095964E-3,-.10817E-3,0
STARLINK-35428,2025-237B,2026-06-19T20:00:01.999008,15.30183425,.0001138,53.1579,285.3378,79.5654,41.5271,0,U,66115,999,586,.98454E-3,.28899E-3,0
STARLINK-35573,2025-237C,2026-06-19T13:29:38.598720,15.34412797,.00012841,53.1597,286.0160,75.8781,284.2364,0,U,66116,999,3821,.65666507E-3,.21884E-3,0
STARLINK-35572,2025-237D,2026-06-19T14:37:08.739552,15.30207218,.00010493,53.1593,286.3047,78.5826,281.5293,0,U,66117,999,3821,.5800708E-3,.16864E-3,0
STARLINK-35468,2025-237E,2026-06-19T14:55:23.007648,15.30204670,.00013694,53.1587,286.3889,74.5908,285.5244,0,U,66118,999,3821,.78908737E-3,.23087E-3,0
