STARLINK-35571          
1 66089U 25236D   26170.69513713  .00025756  00000+0  87847-3 0  9999
2 66089  53.1622 349.9588 0001224  88.2128 271.9013 15.30208612 38567
STARLINK-35570          
1 66090U 25236E   26170.67931053  .00016938  00000+0  58250-3 0  9998
2 66090  53.1614 349.8613 0001813  60.0865 300.0316 15.30211492 38568
STARLINK-35532          
1 66091U 25236F   26170.86891669  .00016738  00000+0  57583-3 0  9994
2 66091  53.1605 348.9071 0001086 123.6917 236.4187 15.30208429 38590
STARLINK-35527          
1 66092U 25236G   26170.69086606  .00031586  00000+0  94129-3 0  9998
2 66092  53.1608 349.2278 0001300  72.5609 287.5536 15.34424751 38571
STARLINK-35500          
1 66093U 25236H   26170.69829872  .00007769  00000+0  27411-3 0  9995
2 66093  53.1621 349.9732 0001241 109.3463 250.7672 15.30205415 38562
STARLINK-35528          
1 66094U 25236J   26170.69197257  .00017027  00000+0  58560-3 0  9998
2 66094  53.1631 349.9381 0001101  79.1482 280.9642 15.30204832 38568
STARLINK-35559          
1 66095U 25236K   26170.68880455  .00020068  00000+0  68759-3 0  9997
2 66095  53.1612 349.9142 0001276  70.7489 289.3649 15.30212783 38564
STARLINK-34386          
1 66096U 25236L   26170.68247889  .00019724  00000+0  67599-3 0  9994
2 66096  53.1618 349.8723 0002889  35.5821 324.5372 15.30212574 38568
STARLINK-35613          
1 66097U 25236M   26170.69091492  .00018447  00000+0  63322-3 0  9994
2 66097  53.1623 349.9296 0001488  99.8930 260.2239 15.30209048 38569
STARLINK-34206          
1 66098U 25236N   26170.69717843  .00029975  00000+0  89460-3 0  9999
2 66098  53.1615 349.2644 0001206  96.9365 263.1775 15.34404864 38563
STARLINK-34460          
1 66099U 25236P   26170.87208214  .00018318  00000+0  62878-3 0  9990
2 66099  53.1611 348.9273 0000976  94.4287 265.6825 15.30213973 38594
STARLINK-35609          
1 66100U 25236Q   26170.71611297  .00029048  00000+0  86711-3 0  9999
2 66100  53.1588 349.3856 0000775  89.1504 270.9588 15.34415129 38510
STARLINK-35595          
1 66101U 25236R   26170.86532669  .00015866  00000+0  47970-3 0  9998
2 66101  53.1618 348.8867 0001470  86.2051 273.9120 15.34401550 38539
STARLINK-35599          
1 66102U 25236S   26170.69507597  .00029959  00000+0  89426-3 0  9992
2 66102  53.1613 349.2511 0000949  80.4751 279.6358 15.34400986 38515
STARLINK-35622          
1 66103U 25236T   26170.72031221  .00000786  00000+0  34395-4 0  9996
2 66103  53.1594 349.4050 0001086  59.2786 300.8324 15.34403335 38576
STARLINK-35452          
1 66104U 25236U   26170.70138729  .00028853  00000+0  86152-3 0  9998
2 66104  53.1613 349.2874 0001209  68.0073 292.1058 15.34409900 38576
STARLINK-35561          
1 66105U 25236V   26170.87164477  .00023811  00000+0  71407-3 0  9992
2 66105  53.1615 348.9225 0001197  90.4538 269.6602 15.34380186 38530
STARLINK-35584          
1 66106U 25236W   26170.69297080  .00020751  00000+0  62347-3 0  9993
2 66106  53.1612 349.2349 0001251  84.4192 275.6954 15.34406476 38571
STARLINK-35593          
1 66107U 25236X   26170.71190538  .00024714  00000+0  73991-3 0  9997
2 66107  53.1601 349.3540 0000912 112.8434 247.2665 15.34411549 38573
STARLINK-35590          
1 66108U 25236Y   26170.86953124  .00019004  00000+0  57201-3 0  9994
2 66108  53.1606 348.9097 0001007  47.2310 312.8777 15.34407698 38530
STARLINK-35545          
1 66109U 25236Z   26170.72452875  .00025734  00000+0  77000-3 0  9993
2 66109  53.1604 349.4280 0000994  90.1260 269.9856 15.34405894 38574
STARLINK-35427          
1 66110U 25236AA  26170.86797603  .00017488  00000+0  60109-3 0  9990
2 66110  53.1599 349.6128 0001259  97.9228 262.1915 15.30205345 38583
STARLINK-35574          
1 66111U 25236AB  26170.73524054  .00016771  00000+0  57674-3 0  9992
2 66111  53.1614 350.2034 0001528  78.5454 281.5718 15.30219949 38504
STARLINK-35531          
1 66112U 25236AC  26170.69723926  .00005048  00000+0  18258-3 0  9997
2 66112  53.1624 349.9657 0001721  90.4341 269.6857 15.30179089 38562
STARLINK-35491          
1 66113U 25236AD  26170.73312831  .00012082  00000+0  41932-3 0  9993
2 66113  53.1598 350.1926 0001177  98.7084 261.4050 15.30204967 38565
STARLINK-35496          
1 66114U 25237A   26170.61686006 -.00010817  00000+0 -30960-3 0  9995
2 66114  53.1588 285.6461 0000759  81.1888 278.9201 15.34388983 38223
STARLINK-35428          
1 66115U 25237B   26170.83335647  .00028899  00000+0  98454-3 0  9991
2 66115  53.1579 285.3378 0001138  79.5654  41.5271 15.30183425  5867
STARLINK-35573          
1 66116U 25237C   26170.56225230  .00021884  00000+0  65667-3 0  9995
2 66116  53.1597 286.0160 0001284  75.8781 284.2364 15.34412797 38212
STARLINK-35572          
1 66117U 25237D   26170.60912893  .00016864  00000+0  58007-3 0  9991
2 66117  53.1593 286.3047 0001049  78.5826 281.5293 15.30207218 38212
STARLINK-35468          
1 66118U 25237E   26170.62179407  .00023087  00000+0  78909-3 0  9998
2 66118  53.1587 286.3889 0001369  74.5908 285.5244 15.30204670 38211
